CCSDS_OMM_VERS = 2.0
CREATION_DATE  = 
ORIGINATOR     = 

OBJECT_NAME    = SHIJIAN-16 (SJ-16)
OBJECT_ID      = 2013-057A
CENTER_NAME    = EARTH
REF_FRAME      = TEME
TIME_SYSTEM    = UTC
MEAN_ELEMENT_THEORY = SGP/SGP4

EPOCH          = 2025-11-27T04:18:14.005728
MEAN_MOTION    = 14.91922031
ECCENTRICITY   = .0017076
INCLINATION    = 74.9735
RA_OF_ASC_NODE = 19.0954
ARG_OF_PERICENTER = 356.7172
MEAN_ANOMALY   = 3.3901

EPHEMERIS_TYPE = 0
CLASSIFICATION_TYPE = U
NORAD_CAT_ID   = 39358
ELEMENT_SET_NO = 999
REV_AT_EPOCH   = 65621
BSTAR          = .22309E-3
MEAN_MOTION_DOT = .2235E-4
MEAN_MOTION_DDOT = 0

CCSDS_OMM_VERS = 2.0
CREATION_DATE  = 
ORIGINATOR     = 

OBJECT_NAME    = SL-4 R/B
OBJECT_ID      = 2014-021B
CENTER_NAME    = EARTH
REF_FRAME      = TEME
TIME_SYSTEM    = UTC
MEAN_ELEMENT_THEORY = SGP/SGP4

EPOCH          = 2025-11-26T16:18:39.178368
MEAN_MOTION    = 15.36082508
ECCENTRICITY   = .01030948
INCLINATION    = 51.6069
RA_OF_ASC_NODE = 118.6101
ARG_OF_PERICENTER = 88.4676
MEAN_ANOMALY   = 272.8113

EPHEMERIS_TYPE = 0
CLASSIFICATION_TYPE = U
NORAD_CAT_ID   = 39679
ELEMENT_SET_NO = 999
REV_AT_EPOCH   = 64042
BSTAR          = .38722102E-3
MEAN_MOTION_DOT = .16099E-3
MEAN_MOTION_DDOT = 0

CCSDS_OMM_VERS = 2.0
CREATION_DATE  = 
ORIGINATOR     = 

OBJECT_NAME    = ALOS-2
OBJECT_ID      = 2014-029A
CENTER_NAME    = EARTH
REF_FRAME      = TEME
TIME_SYSTEM    = UTC
MEAN_ELEMENT_THEORY = SGP/SGP4

EPOCH          = 2025-11-27T04:29:58.096608
MEAN_MOTION    = 14.79483234
ECCENTRICITY   = .0001385
INCLINATION    = 97.9230
RA_OF_ASC_NODE = 66.2547
ARG_OF_PERICENTER = 99.0804
MEAN_ANOMALY   = 261.0565

EPHEMERIS_TYPE = 0
CLASSIFICATION_TYPE = U
NORAD_CAT_ID   = 39766
ELEMENT_SET_NO = 999
REV_AT_EPOCH   = 62171
BSTAR          = .35954E-3
MEAN_MOTION_DOT = .2635E-4
MEAN_MOTION_DDOT = 0

CCSDS_OMM_VERS = 2.0
CREATION_DATE  = 
ORIGINATOR     = 

OBJECT_NAME    = YAOGAN-29
OBJECT_ID      = 2015-069A
CENTER_NAME    = EARTH
REF_FRAME      = TEME
TIME_SYSTEM    = UTC
MEAN_ELEMENT_THEORY = SGP/SGP4

EPOCH          = 2025-11-27T03:57:13.860000
MEAN_MOTION    = 14.82856538
ECCENTRICITY   = .0001236
INCLINATION    = 98.0235
RA_OF_ASC_NODE = 354.2854
ARG_OF_PERICENTER = 21.9516
MEAN_ANOMALY   = 338.1750

EPHEMERIS_TYPE = 0
CLASSIFICATION_TYPE = U
NORAD_CAT_ID   = 41038
ELEMENT_SET_NO = 999
REV_AT_EPOCH   = 54068
BSTAR          = .78138E-4
MEAN_MOTION_DOT = .578E-5
MEAN_MOTION_DDOT = 0

CCSDS_OMM_VERS = 2.0
CREATION_DATE  = 
ORIGINATOR     = 

OBJECT_NAME    = ASTRO-H (HITOMI)
OBJECT_ID      = 2016-012A
CENTER_NAME    = EARTH
REF_FRAME      = TEME
TIME_SYSTEM    = UTC
MEAN_ELEMENT_THEORY = SGP/SGP4

EPOCH          = 2025-11-27T03:33:53.881920
MEAN_MOTION    = 15.09205407
ECCENTRICITY   = .0009567
INCLINATION    = 31.0005
RA_OF_ASC_NODE = 297.8734
ARG_OF_PERICENTER = 20.0775
MEAN_ANOMALY   = 340.0238

EPHEMERIS_TYPE = 0
CLASSIFICATION_TYPE = U
NORAD_CAT_ID   = 41337
ELEMENT_SET_NO = 999
REV_AT_EPOCH   = 53672
BSTAR          = .2293E-3
MEAN_MOTION_DOT = .3832E-4
MEAN_MOTION_DDOT = 0

CCSDS_OMM_VERS = 2.0
CREATION_DATE  = 
ORIGINATOR     = 

OBJECT_NAME    = HXMT (HUIYAN)
OBJECT_ID      = 2017-034A
CENTER_NAME    = EARTH
REF_FRAME      = TEME
TIME_SYSTEM    = UTC
MEAN_ELEMENT_THEORY = SGP/SGP4

EPOCH          = 2025-11-27T04:15:05.910336
MEAN_MOTION    = 15.16046417
ECCENTRICITY   = .0033691
INCLINATION    = 43.0132
RA_OF_ASC_NODE = 225.9774
ARG_OF_PERICENTER = 305.4034
MEAN_ANOMALY   = 54.3668

EPHEMERIS_TYPE = 0
CLASSIFICATION_TYPE = U
NORAD_CAT_ID   = 42758
ELEMENT_SET_NO = 999
REV_AT_EPOCH   = 46697
BSTAR          = .39585E-3
MEAN_MOTION_DOT = .763E-4
MEAN_MOTION_DDOT = 0

CCSDS_OMM_VERS = 2.0
CREATION_DATE  = 
ORIGINATOR     = 

OBJECT_NAME    = CZ-2C R/B
OBJECT_ID      = 2018-054D
CENTER_NAME    = EARTH
REF_FRAME      = TEME
TIME_SYSTEM    = UTC
MEAN_ELEMENT_THEORY = SGP/SGP4

EPOCH          = 2025-11-27T04:15:55.617984
MEAN_MOTION    = 15.70462277
ECCENTRICITY   = .0020117
INCLINATION    = 35.1353
RA_OF_ASC_NODE = 286.1348
ARG_OF_PERICENTER = 343.3172
MEAN_ANOMALY   = 16.6896

EPHEMERIS_TYPE = 0
CLASSIFICATION_TYPE = U
NORAD_CAT_ID   = 43521
ELEMENT_SET_NO = 999
REV_AT_EPOCH   = 41260
BSTAR          = .76673E-3
MEAN_MOTION_DOT = .99746E-3
MEAN_MOTION_DDOT = 0

CCSDS_OMM_VERS = 2.0
CREATION_DATE  = 
ORIGINATOR     = 

OBJECT_NAME    = SAOCOM 1A
OBJECT_ID      = 2018-076A
CENTER_NAME    = EARTH
REF_FRAME      = TEME
TIME_SYSTEM    = UTC
MEAN_ELEMENT_THEORY = SGP/SGP4

EPOCH          = 2025-11-27T03:28:03.091008
MEAN_MOTION    = 14.82151307
ECCENTRICITY   = .0001584
INCLINATION    = 97.8858
RA_OF_ASC_NODE = 155.7933
ARG_OF_PERICENTER = 89.3393
MEAN_ANOMALY   = 270.8002

EPHEMERIS_TYPE = 0
CLASSIFICATION_TYPE = U
NORAD_CAT_ID   = 43641
ELEMENT_SET_NO = 999
REV_AT_EPOCH   = 38617
BSTAR          = .80996E-4
MEAN_MOTION_DOT = .593E-5
MEAN_MOTION_DDOT = 0

CCSDS_OMM_VERS = 2.0
CREATION_DATE  = 
ORIGINATOR     = 

OBJECT_NAME    = H-2A R/B
OBJECT_ID      = 2018-084L
CENTER_NAME    = EARTH
REF_FRAME      = TEME
TIME_SYSTEM    = UTC
MEAN_ELEMENT_THEORY = SGP/SGP4

EPOCH          = 2025-11-27T00:03:26.742240
MEAN_MOTION    = 15.36584596
ECCENTRICITY   = .002854
INCLINATION    = 98.8789
RA_OF_ASC_NODE = 161.8301
ARG_OF_PERICENTER = 20.1751
MEAN_ANOMALY   = 340.0609

EPHEMERIS_TYPE = 0
CLASSIFICATION_TYPE = U
NORAD_CAT_ID   = 43682
ELEMENT_SET_NO = 999
REV_AT_EPOCH   = 38998
BSTAR          = .56316E-3
MEAN_MOTION_DOT = .20311E-3
MEAN_MOTION_DDOT = 0

CCSDS_OMM_VERS = 2.0
CREATION_DATE  = 
ORIGINATOR     = 

OBJECT_NAME    = SAOCOM 1B
OBJECT_ID      = 2020-059A
CENTER_NAME    = EARTH
REF_FRAME      = TEME
TIME_SYSTEM    = UTC
MEAN_ELEMENT_THEORY = SGP/SGP4

EPOCH          = 2025-11-26T21:44:11.491584
MEAN_MOTION    = 14.82159789
ECCENTRICITY   = .00013387
INCLINATION    = 97.8846
RA_OF_ASC_NODE = 154.6594
ARG_OF_PERICENTER = 90.1446
MEAN_ANOMALY   = 269.9920

EPHEMERIS_TYPE = 0
CLASSIFICATION_TYPE = U
NORAD_CAT_ID   = 46265
ELEMENT_SET_NO = 999
REV_AT_EPOCH   = 28352
BSTAR          = .85393985E-4
MEAN_MOTION_DOT = .628E-5
MEAN_MOTION_DDOT = 0

CCSDS_OMM_VERS = 2.0
CREATION_DATE  = 
ORIGINATOR     = 

OBJECT_NAME    = CSS (TIANHE)
OBJECT_ID      = 2021-035A
CENTER_NAME    = EARTH
REF_FRAME      = TEME
TIME_SYSTEM    = UTC
MEAN_ELEMENT_THEORY = SGP/SGP4

EPOCH          = 2025-11-26T18:15:06.628032
MEAN_MOTION    = 15.58310216
ECCENTRICITY   = .00107613
INCLINATION    = 41.4669
RA_OF_ASC_NODE = 113.6485
ARG_OF_PERICENTER = 276.2599
MEAN_ANOMALY   = 83.7013

EPHEMERIS_TYPE = 0
CLASSIFICATION_TYPE = U
NORAD_CAT_ID   = 48274
ELEMENT_SET_NO = 999
REV_AT_EPOCH   = 26153
BSTAR          = .3051458E-3
MEAN_MOTION_DOT = .23599E-3
MEAN_MOTION_DDOT = 0

CCSDS_OMM_VERS = 2.0
CREATION_DATE  = 
ORIGINATOR     = 

OBJECT_NAME    = COSMOS 2550
OBJECT_ID      = 2021-056A
CENTER_NAME    = EARTH
REF_FRAME      = TEME
TIME_SYSTEM    = UTC
MEAN_ELEMENT_THEORY = SGP/SGP4

EPOCH          = 2025-11-26T19:34:10.629984
MEAN_MOTION    = 15.33840302
ECCENTRICITY   = .0008298
INCLINATION    = 67.1432
RA_OF_ASC_NODE = 352.1024
ARG_OF_PERICENTER = 270.4119
MEAN_ANOMALY   = 89.6085

EPHEMERIS_TYPE = 0
CLASSIFICATION_TYPE = U
NORAD_CAT_ID   = 48865
ELEMENT_SET_NO = 999
REV_AT_EPOCH   = 24768
BSTAR          = .1533894E-5
MEAN_MOTION_DOT = -.141E-5
MEAN_MOTION_DDOT = 0

